NORAD_CAT_ID,OBJECT_NAME,OBJECT_TYPE,EPOCH,MEAN_MOTION,ECCENTRICITY,INCLINATION,RA_OF_ASC_NODE,ARG_OF_PERICENTER,MEAN_ANOMALY,BSTAR,MEAN_MOTION_DOT,MEAN_MOTION_DDOT,TLE_LINE0,TLE_LINE1,TLE_LINE2,SEMIMAJOR_AXIS,PERIOD,APOGEE,PERIGEE,DECAYED
54203.0,STARLINK-5247,PAYLOAD,2024-05-05 10:41:32,15.08842888,0.0001316,53.2163,136.2347,102.6644,257.4495,-2.7143e-05,-7.2e-06,0.0,0 STARLINK-5247,1 54203U 22141AY  24126.44551808 -.00000720  00000-0 -27143-4 0  9996,2 54203  53.2163 136.2347 0001316 102.6644 257.4495 15.08842888 84590,6917.872,95.437,540.647,538.826,0.0
54203.0,STARLINK-5247,PAYLOAD,2024-05-06 07:21:33,15.08842599,0.0001328,53.2147,132.3695,99.2786,260.8356,0.00031112,4.667e-05,0.0,0 STARLINK-5247,1 54203U 22141AY  24127.30664133  .00004667  00000-0  31112-3 0  9990,2 54203  53.2147 132.3695 0001328  99.2786 260.8356 15.08842599 84498,6917.872,95.437,540.656,538.819,0.0
54203.0,STARLINK-5247,PAYLOAD,2024-05-07 04:01:34,15.08850561,0.0001306,53.2148,128.5042,100.8946,259.2194,0.00024267,3.577e-05,0.0,0 STARLINK-5247,1 54203U 22141AY  24128.16775625  .00003577  00000-0  24267-3 0  9996,2 54203  53.2148 128.5042 0001306 100.8946 259.2194 15.08850561 84855,6917.848,95.437,540.617,538.81,0.0
54203.0,STARLINK-5247,PAYLOAD,2024-05-07 08:47:43,15.08853459,0.0001315,53.2147,127.6114,97.9067,262.2074,0.00027466,4.088e-05,0.0,0 STARLINK-5247,1 54203U 22141AY  24128.36647426  .00004088  00000-0  27466-3 0  9997,2 54203  53.2147 127.6114 0001315  97.9067 262.2074 15.08853459 84652,6917.839,95.437,540.614,538.795,0.0
54203.0,STARLINK-5247,PAYLOAD,2024-05-07 16:44:39,15.08846932,0.0001291,53.2145,126.1243,94.4696,265.6444,9.0795e-05,1.158e-05,0.0,0 STARLINK-5247,1 54203U 22141AY  24128.69767460  .00001158  00000-0  90795-4 0  9995,2 54203  53.2145 126.1243 0001291  94.4696 265.6444 15.08846932 84702,6917.859,95.437,540.617,538.831,0.0
54203.0,STARLINK-5247,PAYLOAD,2024-05-08 03:52:21,15.08839252,0.0001442,53.2157,124.0438,99.1891,260.9265,-2.5557e-05,-6.95e-06,0.0,0 STARLINK-5247,1 54203U 22141AY  24129.16135895 -.00000695  00000-0 -25557-4 0  9990,2 54203  53.2157 124.0438 0001442  99.1891 260.9265 15.08839252 85005,6917.883,95.438,540.745,538.75,0.0
54203.0,STARLINK-5247,PAYLOAD,2024-05-08 08:38:31,15.08840881,0.000134,53.216,123.1509,95.5251,264.5894,3.3096e-05,2.39e-06,0.0,0 STARLINK-5247,1 54203U 22141AY  24129.36008181  .00000239  00000-0  33096-4 0  9998,2 54203  53.2160 123.1509 0001340  95.5251 264.5894 15.08840881 84800,6917.878,95.437,540.67,538.816,0.0
54203.0,STARLINK-5247,PAYLOAD,2024-05-08 16:35:26,15.08843045,0.0001335,53.2165,121.6645,93.6434,266.4711,3.1299e-05,2.1e-06,0.0,0 STARLINK-5247,1 54203U 22141AY  24129.69128012  .00000210  00000-0  31299-4 0  9992,2 54203  53.2165 121.6645 0001335  93.6434 266.4711 15.08843045 84854,6917.871,95.437,540.66,538.813,0.0
54203.0,STARLINK-5247,PAYLOAD,2024-05-09 05:18:31,15.08846407,0.0001363,53.2162,119.2853,91.0553,269.0596,5.87e-05,6.47e-06,0.0,0 STARLINK-5247,1 54203U 22141AY  24130.22119623  .00000647  00000-0  58700-4 0  9991,2 54203  53.2162 119.2853 0001363  91.0553 269.0596 15.08846407 85160,6917.861,95.437,540.669,538.783,0.0
54203.0,STARLINK-5247,PAYLOAD,2024-05-09 06:53:54,15.08847201,0.0001373,53.2164,118.9881,90.7409,269.374,6.4017e-05,7.31e-06,0.0,0 STARLINK-5247,1 54203U 22141AY  24130.28743532  .00000731  00000-0  64017-4 0  9991,2 54203  53.2164 118.9881 0001373  90.7409 269.3740 15.08847201 84948,6917.858,95.437,540.673,538.774,0.0
54203.0,STARLINK-5247,PAYLOAD,2024-05-09 16:26:13,15.08847884,0.0001427,53.2164,117.2023,88.2169,271.8987,-4.8042e-05,-1.053e-05,0.0,0 STARLINK-5247,1 54203U 22141AY  24130.68487676 -.00001053  00000-0 -48042-4 0  9999,2 54203  53.2164 117.2023 0001427  88.2169 271.8987 15.08847884 85009,6917.856,95.437,540.708,538.734,0.0
54203.0,STARLINK-5247,PAYLOAD,2024-05-10 05:09:16,15.08862277,0.0001567,53.2167,114.8244,81.3376,278.7794,0.00029477,4.409e-05,0.0,0 STARLINK-5247,1 54203U 22141AY  24131.21477850  .00004409  00000-0  29477-3 0  9998,2 54203  53.2167 114.8244 0001567  81.3376 278.7794 15.08862277 85318,6917.812,95.436,540.761,538.593,0.0
54203.0,STARLINK-5247,PAYLOAD,2024-05-10 08:20:04,15.08837546,0.000129,53.2161,114.2274,87.7108,272.4031,5.6845e-05,6.17e-06,0.0,0 STARLINK-5247,1 54203U 22141AY  24131.34727819  .00000617  00000-0  56845-4 0  9992,2 54203  53.2161 114.2274 0001290  87.7108 272.4031 15.08837546 85333,6917.888,95.438,540.645,538.86,0.0
54203.0,STARLINK-5247,PAYLOAD,2024-05-10 16:17:00,15.08839165,0.0001367,53.2166,112.7414,89.1447,270.9701,6.3245e-05,7.19e-06,0.0,0 STARLINK-5247,1 54203U 22141AY  24131.67847802  .00000719  00000-0  63245-4 0  9998,2 54203  53.2166 112.7414 0001367  89.1447 270.9701 15.08839165 85150,6917.883,95.438,540.694,538.802,0.0
54203.0,STARLINK-5247,PAYLOAD,2024-05-11 05:00:01,15.0889406,0.0001532,53.2173,110.3651,109.6581,250.4577,0.00050068,7.701e-05,0.0,0 STARLINK-5247,1 54203U 22141AY  24132.20835289  .00007701  00000-0  50068-3 0  9990,2 54203  53.2173 110.3651 0001532 109.6581 250.4577 15.08894060 85469,6917.715,95.434,540.64,538.52,0.0
54203.0,STARLINK-5247,PAYLOAD,2024-05-11 22:29:18,15.08845395,0.0001458,53.2178,107.0926,103.331,256.7845,-0.00017542,-3.079e-05,0.0,0 STARLINK-5247,1 54203U 22141AY  24132.93702339 -.00003079  00000-0 -17542-3 0  9995,2 54203  53.2178 107.0926 0001458 103.3310 256.7845 15.08845395 85341,6917.864,95.437,540.738,538.72,0.0
54203.0,STARLINK-5247,PAYLOAD,2024-05-12 04:50:53,15.08789464,0.0001344,53.2155,105.9044,83.9875,276.127,-0.00091362,-0.00014778,0.0,0 STARLINK-5247,1 54203U 22141AY  24133.20200624 -.00014778  00000-0 -91362-3 0  9996,2 54203  53.2155 105.9044 0001344  83.9875 276.1270 15.08789464 85619,6918.035,95.441,540.83,538.97,0.0
54203.0,STARLINK-5247,PAYLOAD,2024-05-12 08:01:39,15.0878805,0.0001321,53.2154,105.3088,83.8075,276.3067,-0.00086748,-0.00014048,0.0,0 STARLINK-5247,1 54203U 22141AY  24133.33449038 -.00014048  00000-0 -86748-3 0  9996,2 54203  53.2154 105.3088 0001321  83.8075 276.3067 15.08788050 85409,6918.039,95.441,540.818,538.99,0.0
54203.0,STARLINK-5247,PAYLOAD,2024-05-13 04:41:41,15.08824181,0.0001451,53.2168,101.4421,84.3899,275.7259,0.00047756,7.317e-05,0.0,0 STARLINK-5247,1 54203U 22141AY  24134.19562161  .00007317  00000-0  47756-3 0  9999,2 54203  53.2168 101.4421 0001451  84.3899 275.7259 15.08824181 85767,6917.929,95.439,540.798,538.79,0.0
54203.0,STARLINK-5247,PAYLOAD,2024-05-13 07:52:28,15.08823515,0.00014,53.2169,100.8483,87.3952,272.7201,0.0006334,9.802e-05,0.0,0 STARLINK-5247,1 54203U 22141AY  24134.32810535  .00009802  00000-0  63340-3 0  9993,2 54203  53.2169 100.8483 0001400  87.3952 272.7201 15.08823515 85557,6917.931,95.439,540.764,538.827,0.0
54203.0,STARLINK-5247,PAYLOAD,2024-05-13 17:24:47,15.08832372,0.0001417,53.2172,99.0642,93.8069,266.3085,0.00066805,0.00010358,0.0,0 STARLINK-5247,1 54203U 22141AY  24134.72554781  .00010358  00000-0  66805-3 0  9992,2 54203  53.2172  99.0642 0001417  93.8069 266.3085 15.08832372 85613,6917.904,95.438,540.749,538.788,0.0
54203.0,STARLINK-5247,PAYLOAD,2024-05-14 04:32:29,15.0882609,0.0001356,53.2169,96.9825,88.5331,271.5817,0.00078541,0.00012229,0.0,0 STARLINK-5247,1 54203U 22141AY  24135.18923370  .00012229  00000-0  78541-3 0  9996,2 54203  53.2169  96.9825 0001356  88.5331 271.5817 15.08826090 85917,6917.923,95.438,540.726,538.85,0.0
54203.0,STARLINK-5247,PAYLOAD,2024-05-14 14:04:48,15.08838241,0.0001325,53.2172,95.1983,86.8707,273.2437,0.00071634,0.0001113,0.0,0 STARLINK-5247,1 54203U 22141AY  24135.58666952  .00011130  00000-0  71634-3 0  9996,2 54203  53.2172  95.1983 0001325  86.8707 273.2437 15.08838241 85740,6917.886,95.438,540.667,538.834,0.0
54203.0,STARLINK-5247,PAYLOAD,2024-05-15 04:23:14,15.08865911,0.0001262,53.2165,92.5212,76.8801,283.2332,0.00033402,5.036e-05,0.0,0 STARLINK-5247,1 54203U 22141AY  24136.18281037  .00005036  00000-0  33402-3 0  9999,2 54203  53.2165  92.5212 0001262  76.8801 283.2332 15.08865911 86067,6917.801,95.436,540.539,538.793,0.0
54203.0,STARLINK-5247,PAYLOAD,2024-05-16 02:38:38,15.08859402,0.0001595,53.2157,88.3549,55.3983,304.7159,0.00017377,2.48e-05,0.0,0 STARLINK-5247,1 54203U 22141AY  24137.11016455  .00002480  00000-0  17377-3 0  9996,2 54203  53.2157  88.3549 0001595  55.3983 304.7159 15.08859402 86206,6917.821,95.436,540.789,538.583,0.0
54203.0,STARLINK-5247,PAYLOAD,2024-05-16 13:46:19,15.08869569,0.0001361,53.2161,86.2756,76.8671,283.2473,0.00030422,4.561e-05,0.0,0 STARLINK-5247,1 54203U 22141AY  24137.57383395  .00004561  00000-0  30422-3 0  9994,2 54203  53.2161  86.2756 0001361  76.8671 283.2473 15.08869569 86048,6917.79,95.436,540.597,538.713,0.0
54203.0,STARLINK-5247,PAYLOAD,2024-05-17 04:04:46,15.08865213,0.0001246,53.2159,83.6006,90.2567,269.8568,0.00031293,4.699e-05,0.0,0 STARLINK-5247,1 54203U 22141AY  24138.16998705  .00004699  00000-0  31293-3 0  9996,2 54203  53.2159  83.6006 0001246  90.2567 269.8568 15.08865213 86362,6917.803,95.436,540.53,538.806,0.0
54203.0,STARLINK-5247,PAYLOAD,2024-05-17 13:37:06,15.08836811,0.0001556,53.2156,81.817,78.409,281.7077,-0.00018326,-3.203e-05,0.0,0 STARLINK-5247,1 54203U 22141AY  24138.56743828 -.00003203  00000-0 -18326-3 0  9998,2 54203  53.2156  81.8170 0001556  78.4090 281.7077 15.08836811 86195,6917.89,95.438,540.832,538.679,0.0
54203.0,STARLINK-5247,PAYLOAD,2024-05-17 19:58:40,15.08815997,0.0001767,53.2165,80.6265,77.6905,282.4285,-0.00060891,-9.96e-05,0.0,0 STARLINK-5247,1 54203U 22141AY  24138.83240762 -.00009960  00000-0 -60891-3 0  9997,2 54203  53.2165  80.6265 0001767  77.6905 282.4285 15.08815997 86468,6917.954,95.439,541.041,538.596,0.0
54203.0,STARLINK-5247,PAYLOAD,2024-05-18 05:30:58,15.08832243,0.0001765,53.2175,78.8398,88.5954,271.5241,3.4897e-05,2.67e-06,0.0,0 STARLINK-5247,1 54203U 22141AY  24139.22984767  .00000267  00000-0  34897-4 0  9998,2 54203  53.2175  78.8398 0001765  88.5954 271.5241 15.08832243 86529,6917.904,95.438,540.99,538.548,0.0
